ONEWEB-0504             
1 54122U 22138K   24292.36646157  .00000080  00000+0  16727-3 0  9990
2 54122  87.9146  65.6392 0001851 107.3893 252.7443 13.19729844 96794
ONEWEB-0505             
1 54123U 22138L   24292.43912075  .00000030  00000+0  42138-4 0  9995
2 54123  87.9144  65.6179 0002315 107.0193 253.1194 13.19729421 96780
ONEWEB-0506             
1 54124U 22138M   24292.33802704  .00000151  00000+0  34592-3 0  9990
2 54124  87.9145  65.6353 0001919 100.0213 260.1137 13.19728822 96768
ONEWEB-0507             
1 54125U 22138N   24292.43438329  .00000040  00000+0  66825-4 0  9992
2 54125  87.9154  65.6475 0001966  96.1303 264.0053 13.19729385 96823
ONEWEB-0508             
1 54126U 22138P   24292.43122990  .00000028  00000+0  38310-4 0  9991
2 54126  87.9151  65.6383 0002258  96.9230 263.2160 13.19728895 96804
ONEWEB-0509             
1 54127U 22138Q   24292.40596084  .00000159  00000+0  36553-3 0  9999
2 54127  87.9145  65.6220 0001752  99.7832 260.3499 13.19726286 96776
ONEWEB-0510             
1 54128U 22138R   24292.31959436  .00000120  00000+0  26429-3 0  9993
2 54128  87.9293  35.1492 0001702  90.3352 269.7976 13.20777568 99174
ONEWEB-0511             
1 54129U 22138S   24292.40278275 -.00000829  00000+0 -21029-2 0  9997
2 54129  87.9140  65.6270 0001963  97.9963 262.1393 13.19757179 96809
